[{"OBJECT_NAME":"STARLINK-1321","OBJECT_ID":"2020-025AU","EPOCH":"2026-03-09T22:50:56.097888","MEAN_MOTION":15.48328666,"ECCENTRICITY":0.00039179,"INCLINATION":53.0512,"RA_OF_ASC_NODE":57.2281,"ARG_OF_PERICENTER":62.1333,"MEAN_ANOMALY":298.0071,"EPHEMERIS_TYPE":0,"CLASSIFICATION_TYPE":"U","NORAD_CAT_ID":45573,"ELEMENT_SET_NO":999,"REV_AT_EPOCH":32550,"BSTAR":0.0012717452,"MEAN_MOTION_DOT":0.00068518,"MEAN_MOTION_DDOT":0},{"OBJECT_NAME":"COSMOS 2251 DEB","OBJECT_ID":"1993-036GV","EPOCH":"2026-03-09T11:43:36.136416","MEAN_MOTION":15.43449097,"ECCENTRICITY":0.00140641,"INCLINATION":73.9879,"RA_OF_ASC_NODE":98.5343,"ARG_OF_PERICENTER":278.4035,"MEAN_ANOMALY":81.558,"EPHEMERIS_TYPE":0,"CLASSIFICATION_TYPE":"U","NORAD_CAT_ID":34010,"ELEMENT_SET_NO":999,"REV_AT_EPOCH":90611,"BSTAR":0.0056310158,"MEAN_MOTION_DOT":0.00261542,"MEAN_MOTION_DDOT":0}]
